NORAD_CAT_ID,OBJECT_NAME,OBJECT_TYPE,EPOCH,MEAN_MOTION,ECCENTRICITY,INCLINATION,RA_OF_ASC_NODE,ARG_OF_PERICENTER,MEAN_ANOMALY,BSTAR,MEAN_MOTION_DOT,MEAN_MOTION_DDOT,TLE_LINE0,TLE_LINE1,TLE_LINE2,SEMIMAJOR_AXIS,PERIOD,APOGEE,PERIGEE,DECAYED
51776.0,STARLINK-3608,PAYLOAD,2022-07-20 14:00:01,15.0887923,0.0002126999999999,53.2154,181.2134,55.0668,157.7927,-0.0045909,-0.00072696,0.0,0 STARLINK-3608,1 51776U 22017J   22201.58334491 -.00072696  00000-0 -45909-2 0  9993,2 51776  53.2154 181.2134 0002127  55.0668 157.7927 15.08879230 23567,6917.76,95.435,541.097,538.154,0.0
51776.0,STARLINK-3608,PAYLOAD,2022-07-20 22:00:01,15.08825859,0.0002052,53.2156,179.7158,60.0043,164.5263,0.0018505,0.00029274,0.0,0 STARLINK-3608,1 51776U 22017J   22201.91668981  .00029274  00000-0  18505-2 0  9998,2 51776  53.2156 179.7158 0002052  60.0043 164.5263 15.08825859  1302,6917.924,95.438,541.2080000000002,538.369,0.0
51776.0,STARLINK-3608,PAYLOAD,2022-07-21 06:00:00,15.08841952,0.0002208,53.2156,178.2213,54.6813,181.3776,-0.00087926,-0.00014256,0.0,0 STARLINK-3608,1 51776U 22017J   22202.25001157 -.00014256  00000-0 -87926-3 0  9992,2 51776  53.2156 178.2213 0002208  54.6813 181.3776 15.08841952 23666,6917.874,95.437,541.2669999999998,538.212,0.0
51776.0,STARLINK-3608,PAYLOAD,2022-07-21 14:00:01,15.0884262,0.0002086999999999,53.2157,176.72400000000005,53.8242,193.8851,-0.0030356,-0.00048281,0.0,0 STARLINK-3608,1 51776U 22017J   22202.58335648 -.00048281  00000-0 -30356-2 0  9992,2 51776  53.2157 176.7240 0002087  53.8242 193.8851 15.08842620  1304,6917.871999999999,95.437,541.181,538.294,0.0
51776.0,STARLINK-3608,PAYLOAD,2022-07-21 22:00:00,15.08815547,0.0002026999999999,53.2159,175.2268,59.4037,199.8191,0.0015902999999999,0.00025096,0.0,0 STARLINK-3608,1 51776U 22017J   22202.91667824  .00025096  00000-0  15903-2 0  9991,2 51776  53.2159 175.2268 0002027  59.4037 199.8191 15.08815547  1309,6917.955,95.439,541.222,538.418,0.0
51776.0,STARLINK-3608,PAYLOAD,2022-07-22 06:00:00,15.08821289,0.0002203,53.2159,173.7322,54.2359,216.5682,0.00085932,0.00013408,0.0,0 STARLINK-3608,1 51776U 22017J   22203.25001157  .00013408  00000-0  85932-3 0  9994,2 51776  53.2159 173.7322 0002203  54.2359 216.5682 15.08821289  1301,6917.938,95.439,541.327,538.279,0.0
51776.0,STARLINK-3608,PAYLOAD,2022-07-22 12:00:00,15.08843371,0.000216,53.2157,172.6095,53.8893,135.5935,-0.00067205,-0.00010969,0.0,0 STARLINK-3608,1 51776U 22017J   22203.50001157 -.00010969  00000-0 -67205-3 0  9996,2 51776  53.2157 172.6095 0002160  53.8893 135.5935 15.08843371 23855,6917.87,95.437,541.229,538.241,0.0
51776.0,STARLINK-3608,PAYLOAD,2022-07-22 22:00:00,15.08839853,0.0002059,53.2161,170.7377,61.2207,232.7538,0.0014439,0.00022766,0.0,0 STARLINK-3608,1 51776U 22017J   22203.91667824  .00022766  00000-0  14439-2 0  9996,2 51776  53.2161 170.7377 0002059  61.2207 232.7538 15.08839853  1306,6917.880999999999,95.438,541.17,538.321,0.0
51776.0,STARLINK-3608,PAYLOAD,2022-07-23 14:00:01,15.088472,0.0002039,53.2158,167.7456,56.0998,261.1397,-0.0027781999999999,-0.00044242,0.0,0 STARLINK-3608,1 51776U 22017J   22204.58335648 -.00044242  00000-0 -27782-2 0  9996,2 51776  53.2158 167.7456 0002039  56.0998 261.1397 15.08847200  1307,6917.858,95.437,541.134,538.313,0.0
51776.0,STARLINK-3608,PAYLOAD,2022-07-23 16:00:00,15.08818347,0.0001961,53.2159,167.3712,58.0498,352.0327,0.00063218,9.782e-05,0.0,0 STARLINK-3608,1 51776U 22017J   22204.66667824  .00009782  00000-0  63218-3 0  9992,2 51776  53.2159 167.3712 0001961  58.0498 352.0327 15.08818347 24026,6917.946999999999,95.439,541.168,538.455,0.0
51776.0,STARLINK-3608,PAYLOAD,2022-07-23 22:00:00,15.08833795,0.0001959,53.2161,166.2487,61.4829,267.2805,0.0010561,0.00016557,0.0,0 STARLINK-3608,1 51776U 22017J   22204.91667824  .00016557  00000-0  10561-2 0  9990,2 51776  53.2161 166.2487 0001959  61.4829 267.2805 15.08833795  1307,6917.899,95.438,541.12,538.409,0.0
51776.0,STARLINK-3608,PAYLOAD,2022-07-24 14:00:01,15.08852076,0.0002012,53.2156,163.2566,58.2117,293.7304,-0.0016094,-0.0002582,0.0,0 STARLINK-3608,1 51776U 22017J   22205.58334491 -.00025820  00000-0 -16094-2 0  9997,2 51776  53.2156 163.2566 0002012  58.2117 293.7304 15.08852076  1302,6917.843000000003,95.437,541.1,538.317,0.0
51776.0,STARLINK-3608,PAYLOAD,2022-07-24 22:00:00,15.08859448,0.0001926,53.2159,161.7599,62.6283,300.9074,-0.0025916,-0.0004131999999999,0.0,0 STARLINK-3608,1 51776U 22017J   22205.91667824 -.00041320  00000-0 -25916-2 0  9999,2 51776  53.2159 161.7599 0001926  62.6283 300.9074 15.08859448  1305,6917.821,95.436,541.018,538.354,0.0
51776.0,STARLINK-3608,PAYLOAD,2022-07-25 14:00:01,15.08831929,0.0001948,53.2154,158.7675,59.3687,327.339,-0.0012610999999999,-0.00020298,0.0,0 STARLINK-3608,1 51776U 22017J   22206.58334491 -.00020298  00000-0 -12611-2 0  9993,2 51776  53.2154 158.7675 0001948  59.3687 327.3390 15.08831929 24310,6917.905,95.438,541.118,538.422,0.0
51776.0,STARLINK-3608,PAYLOAD,2022-07-25 22:00:00,15.08836491,0.0001943,53.2156,157.2711,63.6711,334.6092,-0.0001953,-3.395e-05,0.0,0 STARLINK-3608,1 51776U 22017J   22206.91667824 -.00003395  00000-0 -19530-3 0  9996,2 51776  53.2156 157.2711 0001943  63.6711 334.6092 15.08836491  1301,6917.891,95.438,541.1,538.4119999999998,0.0
51776.0,STARLINK-3608,PAYLOAD,2022-07-26 06:00:00,15.08814462,0.0002086999999999,53.2156,155.7764,58.0363,351.8381,0.0019376999999999,0.00030664,0.0,0 STARLINK-3608,1 51776U 22017J   22207.25001157  .00030664  00000-0  19377-2 0  9990,2 51776  53.2156 155.7764 0002087  58.0363 351.8381 15.08814462 24416,6917.958000000001,95.439,541.2669999999998,538.38,0.0
51776.0,STARLINK-3608,PAYLOAD,2022-07-26 14:00:01,15.08840294,0.0001995,53.2155,154.2785,61.4901,359.9657,-0.00070647,-0.00011514,0.0,0 STARLINK-3608,1 51776U 22017J   22207.58334491 -.00011514  00000-0 -70647-3 0  9999,2 51776  53.2155 154.2785 0001995  61.4901 359.9657 15.08840294  1305,6917.879,95.438,541.125,538.364,0.0
51776.0,STARLINK-3608,PAYLOAD,2022-07-26 22:00:00,15.08852108,0.0002029999999999,53.2156,152.7821,64.72800000000001,8.3136,-0.00048295,-7.969e-05,0.0,0 STARLINK-3608,1 51776U 22017J   22207.91667824 -.00007969  00000-0 -48295-3 0  9998,2 51776  53.2156 152.7821 0002030  64.7280   8.3136 15.08852108  1301,6917.843000000003,95.437,541.113,538.304,0.0
51776.0,STARLINK-3608,PAYLOAD,2022-07-27 06:00:02,15.08825205,0.0002156,53.2158,151.2873,58.9128,25.803,0.0025183,0.00040003,0.0,0 STARLINK-3608,1 51776U 22017J   22208.25002315  .00040003  00000-0  25183-2 0  9998,2 51776  53.2158 151.2873 0002156  58.9128  25.8030 15.08825205 24567,6917.926,95.438,541.2819999999998,538.299,0.0
51776.0,STARLINK-3608,PAYLOAD,2022-07-27 14:00:01,15.08850257,0.0002055,53.2159,149.7894,62.5014,33.7488,-0.00018045,-3.16e-05,0.0,0 STARLINK-3608,1 51776U 22017J   22208.58334491 -.00003160  00000-0 -18045-3 0  9992,2 51776  53.2159 149.7894 0002055  62.5014  33.7488 15.08850257  1303,6917.849,95.437,541.136,538.2919999999998,0.0
51776.0,STARLINK-3608,PAYLOAD,2022-07-27 22:00:00,15.08880004,0.0002091,53.2161,148.293,64.517,43.3332,-0.0035295,-0.00056086,0.0,0 STARLINK-3608,1 51776U 22017J   22208.91667824 -.00056086  00000-0 -35295-2 0  9998,2 51776  53.2161 148.2930 0002091  64.5170  43.3332 15.08880004  1304,6917.7580000000025,95.435,541.07,538.177,0.0
51776.0,STARLINK-3608,PAYLOAD,2022-07-28 00:00:00,15.08875946,0.0002109999999999,53.2161,147.9196,62.7243,138.0332,-0.0042892,-0.00067976,0.0,0 STARLINK-3608,1 51776U 22017J   22209.00001157 -.00067976  00000-0 -42892-2 0  9991,2 51776  53.2161 147.9196 0002110  62.7243 138.0332 15.08875946 24684,6917.771,95.435,541.095,538.1759999999998,0.0
51776.0,STARLINK-3608,PAYLOAD,2022-07-28 14:00:01,15.08834154,0.0002032999999999,53.2166,145.3004,62.0784,68.9817,0.00034184,5.156e-05,0.0,0 STARLINK-3608,1 51776U 22017J   22209.58334491  .00005156  00000-0  34184-3 0  9990,2 51776  53.2166 145.3004 0002033  62.0784  68.9817 15.08834154  1305,6917.898,95.438,541.17,538.357,0.0
51776.0,STARLINK-3608,PAYLOAD,2022-07-28 22:00:00,15.08857903,0.0002115,53.2168,143.8041,64.3484,78.2973,-0.0010168,-0.00016443,0.0,0 STARLINK-3608,1 51776U 22017J   22209.91667824 -.00016443  00000-0 -10168-2 0  9994,2 51776  53.2168 143.8041 0002115  64.3484  78.2973 15.08857903  1308,6917.826,95.436,541.154,538.2280000000002,0.0
51776.0,STARLINK-3608,PAYLOAD,2022-07-29 00:00:00,15.08857172,0.0002144,53.217,143.4309,62.6523,172.8963,-0.0012921,-0.00020803,0.0,0 STARLINK-3608,1 51776U 22017J   22210.00001157 -.00020803  00000-0 -12921-2 0  9991,2 51776  53.2170 143.4309 0002144  62.6523 172.8963 15.08857172 24832,6917.828,95.436,541.1759999999998,538.21,0.0
51776.0,STARLINK-3608,PAYLOAD,2022-07-29 14:00:01,15.08825293,0.0001998,53.2172,140.8114,62.0693,103.795,0.00023832,3.505e-05,0.0,0 STARLINK-3608,1 51776U 22017J   22210.58334491  .00003505  00000-0  23832-3 0  9996,2 51776  53.2172 140.8114 0001998  62.0693 103.7950 15.08825293  1302,6917.925,95.438,541.173,538.408,0.0
51776.0,STARLINK-3608,PAYLOAD,2022-07-29 22:00:00,15.08845511,0.0002076,53.2174,139.3154,63.8486,113.5879,-0.0012755999999999,-0.00020536,0.0,0 STARLINK-3608,1 51776U 22017J   22210.91667824 -.00020536  00000-0 -12756-2 0  9999,2 51776  53.2174 139.3154 0002076  63.8486 113.5879 15.08845511  1302,6917.864000000001,95.437,541.165,538.2919999999998,0.0
51776.0,STARLINK-3608,PAYLOAD,2022-07-30 06:00:00,15.08811018,0.0002177999999999,53.2173,137.8205,58.3803,130.6543,0.0031249,0.00049757,0.0,0 STARLINK-3608,1 51776U 22017J   22211.25001157  .00049757  00000-0  31249-2 0  9990,2 51776  53.2173 137.8205 0002178  58.3803 130.6543 15.08811018 25024,6917.969,95.439,541.341,538.327,0.0
51776.0,STARLINK-3608,PAYLOAD,2022-07-30 14:00:01,15.08827373,0.0002041,53.2175,136.3225,63.9732,136.6496,0.0012513,0.00019676,0.0,0 STARLINK-3608,1 51776U 22017J   22211.58334491  .00019676  00000-0  12513-2 0  9996,2 51776  53.2175 136.3225 0002041  63.9732 136.6496 15.08827373  1303,6917.919,95.438,541.196,538.372,0.0
